HODOYOSHI-1             
1 40299U 14070B   17346.43589328  .00000590  00000-0  28336-4 0  9999
2 40299  97.3925  66.4034 0012629 180.1050 241.3648 15.22639179172068
